OBJECT_NAME,OBJECT_ID,EPOCH,MEAN_MOTION,ECCENTRICITY,INCLINATION,RA_OF_ASC_NODE,ARG_OF_PERICENTER,MEAN_ANOMALY,EPHEMERIS_TYPE,CLASSIFICATION_TYPE,NORAD_CAT_ID,ELEMENT_SET_NO,REV_AT_EPOCH,BSTAR,MEAN_MOTION_DOT,MEAN_MOTION_DDOT
QIANFAN-154,2026-108K,2026-06-04T03:41:19.038048,14.20188328,.0015668,89.0124,23.6611,153.8389,206.3596,0,U,69113,999,250,.16748E-3,.372E-5,0
QIANFAN-155,2026-108L,2026-06-04T03:43:37.824960,14.19533087,.0016376,89.0124,23.6613,154.2866,205.9141,0,U,69114,999,250,.41512E-4,.102E-5,0
QIANFAN-156,2026-108M,2026-06-04T03:36:41.713056,14.20956117,.0015999,89.0127,23.6610,155.4503,204.7452,0,U,69115,999,250,.16486E-3,.372E-5,0
QIANFAN-157,2026-108N,2026-06-04T03:10:05.587104,14.24906578,.0016281,89.0124,23.6578,160.4898,199.6922,0,U,69116,999,250,.17747E-3,.429E-5,0
QIANFAN-158,2026-108P,2026-06-04T03:30:01.809792,14.21845522,.0015933,89.0123,23.6597,156.8282,203.3631,0,U,69117,999,250,.16954E-3,.388E-5,0
QIANFAN-159,2026-108Q,2026-06-04T01:44:12.590016,14.22291301,.0015624,89.0122,23.6670,156.9312,203.2584,0,U,69118,999,249,.55769E-4,.139E-5,0
QIANFAN-160,2026-108R,2026-06-04T03:22:01.928640,14.22715760,.0015345,89.0124,23.6591,156.5033,203.6863,0,U,69119,999,250,.42616E-4,.11E-5,0
QIANFAN-161,2026-108S,2026-06-04T01:37:04.737216,14.23186940,.0015346,89.0124,23.6665,157.4810,202.7059,0,U,69120,999,249,.15274E-3,.36E-5,0
QIANFAN-162,2026-108T,2026-06-04T03:16:30.384192,14.23622599,.0015196,89.0123,23.6584,158.4825,201.7009,0,U,69121,999,250,.17339E-3,.41E-5,0
SMILE,2026-109A,2026-05-24T15:40:35.120928,14.57062785,.00091232,70.0007,229.2745,259.5159,100.4951,0,U,69123,999,80,-.42378883E-3,-.1976E-4,0
STARLINK-37726,2026-110A,2026-06-04T04:00:03.000096,15.60963006,.0001984,97.2850,351.2434,96.5058,112.7305,0,U,69124,999,356,-.34615E-1,-.2520989E-1,0
STARLINK-37722,2026-110B,2026-06-04T04:00:03.000096,15.74933468,.0001455,97.2851,351.3144,80.1830,293.5342,0,U,69125,999,361,-.15477E-1,-.1976491E-1,0
STARLINK-37715,2026-110C,2026-06-04T03:56:02.648256,15.80865269,.0001478,97.2844,351.3124,81.8375,278.3060,0,U,69126,999,358,.77859E-3,.151962E-2,0
STARLINK-37706,2026-110D,2026-06-04T02:23:48.594336,15.80853206,.0001459,97.2844,351.2468,84.2478,275.8956,0,U,69127,999,357,.69652E-3,.135597E-2,0
STARLINK-37723,2026-110E,2026-06-04T02:22:43.573152,15.80887973,.0001529,97.2844,351.2478,83.4678,276.6765,0,U,69128,999,357,.10733E-2,.211189E-2,0
STARLINK-37720,2026-110F,2026-06-04T04:00:03.000096,15.61432707,.0001955,97.2847,351.2634,105.6958,151.1346,0,U,69129,999,356,-.35934E-1,-.2644887E-1,0
STARLINK-37533,2026-110G,2026-06-04T02:19:29.016768,15.80855042,.0002152,97.2844,351.2513,56.6317,303.5157,0,U,69130,999,357,.72192E-3,.14065E-2,0
STARLINK-37530,2026-110H,2026-06-04T03:49:32.954016,15.80867757,.0001175,97.2844,351.3194,75.2363,284.9035,0,U,69131,999,358,.83083E-3,.162379E-2,0
STARLINK-37660,2026-110J,2026-06-04T04:00:03.000096,15.76638760,.0001532,97.2852,351.3243,76.7573,321.4528,0,U,69132,999,356,-.14377E-1,-.1979095E-1,0
STARLINK-37633,2026-110K,2026-06-04T04:00:03.000096,15.77546634,.0001602,97.2850,351.3279,75.0535,330.3655,0,U,69133,999,356,-.13813E-1,-.1980122E-1,0
STARLINK-37361,2026-110L,2026-06-04T02:15:09.102240,15.80846295,.0001547,97.2841,351.2555,80.0137,280.1306,0,U,69134,999,357,.52786E-3,.102305E-2,0
STARLINK-37372,2026-110M,2026-06-04T03:45:13.572576,15.80846108,.0001209,97.2839,351.3226,75.3203,284.8199,0,U,69135,999,358,.68578E-3,.133428E-2,0
STARLINK-37531,2026-110N,2026-06-04T02:12:59.197248,15.80879346,.000156,97.2840,351.2575,65.1984,294.9446,0,U,69136,999,357,.95203E-3,.186712E-2,0
STARLINK-37662,2026-110P,2026-06-04T03:43:34.800960,15.79172498,.0001479,97.2839,351.3245,284.7766,75.3337,0,U,69137,999,358,-.2113E-2,-.360656E-2,0
STARLINK-37658,2026-110Q,2026-06-04T04:00:03.000096,15.71992664,.0001224,97.2859,351.3247,86.6131,311.6863,0,U,69138,999,356,-.71235E-2,-.839981E-2,0
STARLINK-37659,2026-110R,2026-06-04T04:00:03.000096,15.71557537,.0001493,97.2857,351.3213,71.3776,315.2872,0,U,69139,999,356,-.23146E-1,-.2579444E-1,0
STARLINK-37653,2026-110S,2026-06-04T04:00:03.000096,15.70444308,.0001492,97.2856,351.3232,80.3701,311.9827,0,U,69140,999,356,-.2479E-1,-.2628321E-1,0
STARLINK-37654,2026-110T,2026-06-04T02:07:37.754688,15.80524613,.0003813,97.2837,351.2624,32.1378,328.0122,0,U,69141,999,357,-.17429E-2,-.318104E-2,0
STARLINK-37655,2026-110U,2026-06-04T03:37:39.470592,15.80783360,.0001874,97.2836,351.3308,69.8421,290.3049,0,U,69142,999,358,.71381E-4,.13532E-3,0
