QIANFAN-154             
1 69113U 26108K   26155.15369257  .00000372  00000+0  16748-3 0  9994
2 69113  89.0124  23.6611 0015668 153.8389 206.3596 14.20188328  2503
QIANFAN-155             
1 69114U 26108L   26155.15529890  .00000102  00000+0  41512-4 0  9995
2 69114  89.0124  23.6613 0016376 154.2866 205.9141 14.19533087  2503
QIANFAN-156             
1 69115U 26108M   26155.15048279  .00000372  00000+0  16486-3 0  9993
2 69115  89.0127  23.6610 0015999 155.4503 204.7452 14.20956117  2502
QIANFAN-157             
1 69116U 26108N   26155.13200911  .00000429  00000+0  17747-3 0  9999
2 69116  89.0124  23.6578 0016281 160.4898 199.6922 14.24906578  2505
QIANFAN-158             
1 69117U 26108P   26155.14585428  .00000388  00000+0  16954-3 0  9993
2 69117  89.0123  23.6597 0015933 156.8282 203.3631 14.21845522  2503
QIANFAN-159             
1 69118U 26108Q   26155.07236794  .00000139  00000+0  55769-4 0  9997
2 69118  89.0122  23.6670 0015624 156.9312 203.2584 14.22291301  2492
QIANFAN-160             
1 69119U 26108R   26155.14030010  .00000110  00000+0  42616-4 0  9995
2 69119  89.0124  23.6591 0015345 156.5033 203.6863 14.22715760  2509
QIANFAN-161             
1 69120U 26108S   26155.06741594  .00000360  00000+0  15274-3 0  9990
2 69120  89.0124  23.6665 0015346 157.4810 202.7059 14.23186940  2495
QIANFAN-162             
1 69121U 26108T   26155.13646278  .00000410  00000+0  17339-3 0  9992
2 69121  89.0123  23.6584 0015196 158.4825 201.7009 14.23622599  2506
SMILE                   
1 69123U 26109A   26144.65318427 -.00001976  00000+0 -42379-3 0  9994
2 69123  70.0007 229.2745 0009123 259.5159 100.4951 14.57062785   802
STARLINK-37726          
1 69124U 26110A   26155.16670139 -.02520989  00000+0 -34615-1 0  9990
2 69124  97.2850 351.2434 0001984  96.5058 112.7305 15.60963006  3561
STARLINK-37722          
1 69125U 26110B   26155.16670139 -.01976491  00000+0 -15477-1 0  9998
2 69125  97.2851 351.3144 0001455  80.1830 293.5342 15.74933468  3611
STARLINK-37715          
1 69126U 26110C   26155.16391954  .00151962  00000+0  77859-3 0  9993
2 69126  97.2844 351.3124 0001478  81.8375 278.3060 15.80865269  3583
STARLINK-37706          
1 69127U 26110D   26155.09986799  .00135597  00000+0  69652-3 0  9991
2 69127  97.2844 351.2468 0001459  84.2478 275.8956 15.80853206  3577
STARLINK-37723          
1 69128U 26110E   26155.09911543  .00211189  00000+0  10733-2 0  9994
2 69128  97.2844 351.2478 0001529  83.4678 276.6765 15.80887973  3575
STARLINK-37720          
1 69129U 26110F   26155.16670139 -.02644887  00000+0 -35934-1 0  9994
2 69129  97.2847 351.2634 0001955 105.6958 151.1346 15.61432707  3565
STARLINK-37533          
1 69130U 26110G   26155.09686362  .00140650  00000+0  72192-3 0  9997
2 69130  97.2844 351.2513 0002152  56.6317 303.5157 15.80855042  3570
STARLINK-37530          
1 69131U 26110H   26155.15940919  .00162379  00000+0  83083-3 0  9999
2 69131  97.2844 351.3194 0001175  75.2363 284.9035 15.80867757  3583
STARLINK-37660          
1 69132U 26110J   26155.16670139 -.01979095  00000+0 -14377-1 0  9997
2 69132  97.2852 351.3243 0001532  76.7573 321.4528 15.76638760  3561
STARLINK-37633          
1 69133U 26110K   26155.16670139 -.01980122  00000+0 -13813-1 0  9995
2 69133  97.2850 351.3279 0001602  75.0535 330.3655 15.77546634  3566
STARLINK-37361          
1 69134U 26110L   26155.09385535  .00102305  00000+0  52786-3 0  9991
2 69134  97.2841 351.2555 0001547  80.0137 280.1306 15.80846295  3571
STARLINK-37372          
1 69135U 26110M   26155.15640709  .00133428  00000+0  68578-3 0  9992
2 69135  97.2839 351.3226 0001209  75.3203 284.8199 15.80846108  3586
STARLINK-37531          
1 69136U 26110N   26155.09235182  .00186712  00000+0  95203-3 0  9990
2 69136  97.2840 351.2575 0001560  65.1984 294.9446 15.80879346  3574
STARLINK-37662          
1 69137U 26110P   26155.15526390 -.00360656  00000+0 -21130-2 0  9992
2 69137  97.2839 351.3245 0001479 284.7766  75.3337 15.79172498  3587
STARLINK-37658          
1 69138U 26110Q   26155.16670139 -.00839981  00000+0 -71235-2 0  9998
2 69138  97.2859 351.3247 0001224  86.6131 311.6863 15.71992664  3560
STARLINK-37659          
1 69139U 26110R   26155.16670139 -.02579444  00000+0 -23146-1 0  9993
2 69139  97.2857 351.3213 0001493  71.3776 315.2872 15.71557537  3562
STARLINK-37653          
1 69140U 26110S   26155.16670139 -.02628321  00000+0 -24790-1 0  9990
2 69140  97.2856 351.3232 0001492  80.3701 311.9827 15.70444308  3564
STARLINK-37654          
1 69141U 26110T   26155.08863142 -.00318104  00000+0 -17429-2 0  9995
2 69141  97.2837 351.2624 0003813  32.1378 328.0122 15.80524613  3579
STARLINK-37655          
1 69142U 26110U   26155.15115128  .00013532  00000+0  71381-4 0  9992
2 69142  97.2836 351.3308 0001874  69.8421 290.3049 15.80783360  3586
